ENVISAT                 
1 27386U 02009A   23268.53385781  .00000296  00000+0  11073-3 0  9999
2 27386  98.2429 234.4715 0001187  86.7842  25.9590 14.38411325130310
IDEFIX & ARIANE 42P R/B 
1 27422U 02021B   23268.53623609  .00000624  00000+0  25938-3 0  9998
2 27422  98.4962 207.0093 0011335 311.0124  49.0077 14.29787459115902
AQUA                    
1 27424U 02022A   23268.61909824  .00002066  00000+0  45644-3 0  9994
2 27424  98.2937 212.7328 0000988 105.5280  73.2049 14.58349762137959
CZ-4B R/B               
1 27432U 02024C   23268.58897375  .00000120  00000+0  85558-4 0  9996
2 27432  99.0152 304.1208 0050968  43.4861  70.7068 14.14239224102562
MIDORI II (ADEOS-II)    
1 27597U 02056A   23268.58601257  .00000641  00000+0  27593-3 0  9997
2 27597  98.6555 211.9261 0002095  86.7194 273.4227 14.28009232 82348
H-2A R/B                
1 27601U 02056E   23268.55786257  .00000726  00000+0  27553-3 0  9994
2 27601  98.2017 254.3311 0070789 314.6135 152.6152 14.32470178 85752
CZ-4B R/B               
1 28059U 03049C   23268.47414786  .00000898  00000+0  22440-3 0  9991
2 28059  98.5697 219.0624 0050755  87.1450 273.5552 14.53302774 56344
CZ-2C R/B               
1 28222U 04012C   23268.51261678  .00013052  00000+0  61022-3 0  9994
2 28222  97.8076 266.2065 0036983 252.4224 107.2968 15.19302955 66670
SL-16 R/B               
1 28353U 04021B   23268.52718030  .00000362  00000+0  21402-3 0  9997
2 28353  71.0005 312.7899 0006604 305.5856  54.4650 14.14345020996117
CZ-4B R/B               
1 28415U 04035C   23268.53357913  .00007263  00000+0  41716-3 0  9998
2 28415  97.4609 303.3160 0045133 220.8316 138.9531 15.11937387 43777
CZ-2C R/B               
1 28480U 04046B   23268.48249466  .00000534  00000+0  21709-3 0  9993
2 28480  98.1231 226.0990 0140001 285.5306  73.0456 14.26113955980718
ARIANE 5 R/B            
1 28499U 04049H   23268.59546956  .00001499  00000+0  18540-3 0  9992
2 28499  98.1490  36.2344 0089930  12.4382 358.2951 14.81560026 12937
CZ-2D R/B               
1 28738U 05024B   23268.52339959  .00012213  00000+0  57299-3 0  9998
2 28738  97.3589 267.4010 0010304  12.1143 348.0338 15.19752788  2230
SUZAKU (ASTRO-EII)      
1 28773U 05025A   23268.31770066  .00033870  00000+0  10737-2 0  9990
2 28773  31.3892 123.0093 0003562  46.4066 313.6880 15.31525409  6027
ALOS (DAICHI)           
1 28931U 06002A   23268.48981951  .00002494  00000+0  47941-3 0  9993
2 28931  97.9977 223.0844 0000710  64.3051 295.8226 14.64494388942070
H-2A R/B                
1 28932U 06002B   23268.46745192  .00007094  00000+0  57837-3 0  9993
2 28932  98.2325 340.7052 0080256   2.2711 357.8858 14.97289133959521
RESURS-DK 1             
1 29228U 06021A   23268.59743804  .00004565  00000+0  32464-3 0  9994
2 29228  69.9376  21.8977 0002204  26.2428 333.8846 15.05373097952327
GENESIS 1               
1 29252U 06029A   23268.54756030  .00017320  00000+0  61809-3 0  9997
2 29252  64.5211 335.7071 0011877 212.4943 147.5456 15.28938053949857
CZ-4B R/B               
1 29507U 06046C   23268.54860739  .00005823  00000+0  40777-3 0  9997
2 29507  97.6812 301.2059 0044804 100.4360 260.1920 15.04809195924739
CZ-2C R/B               
1 31114U 07010B   23268.41591292  .00000283  00000+0  15037-3 0  9993
2 31114  98.2948  55.6273 0059940  23.4949 336.8947 14.19623260852524
COSMO-SKYMED 1          
1 31598U 07023A   23268.61713323  .00001132  00000+0  14872-3 0  9996
2 31598  97.8885  90.6441 0001119  85.3677 274.7664 14.82170531881785
GENESIS 2               
1 31789U 07028A   23268.59739403  .00020284  00000+0  72558-3 0  9991
2 31789  64.4951  20.0783 0052307 248.3057 111.2496 15.27542976896730
COSMOS 2428             
1 31792U 07029A   23268.52367971  .00000254  00000+0  16328-3 0  9994
2 31792  70.9290 284.1772 0006475  57.9833 302.1916 14.12564396837527
SL-16 R/B               
1 31793U 07029B   23268.43215851 -.00000071  00000+0 -11880-4 0  9992
2 31793  70.9745 255.9813 0003033 273.0475 199.1773 14.14557042838613
KORONAS-FOTON           
1 33504U 09003A   23268.52120494  .00007243  00000+0  31790-3 0  9993
2 33504  82.4366 110.6461 0018464  92.5641 267.7708 15.21628700808561
CZ-2C R/B               
1 37731U 11030B   23268.56031958  .00002989  00000+0  42563-3 0  9994
2 37731  97.7256 237.9801 0058325  23.1207  41.1242 14.76381917657646
H-2A R/B                
1 38341U 12025E   23268.44656155  .00004835  00000+0  53877-3 0  9998
2 38341  98.4397 158.4658 0052667 349.9384  10.0770 14.86589526614688
CUSAT 2 & FALCON 9 R/B  
1 39271U 13055G   23268.38167492  .00072594 -55840-7  11730-2 0  9998
2 39271  80.9475  32.7475 0409757  99.0564 265.7247 14.93633220525356
SHIJIAN-16 (SJ-16)      
1 39358U 13057A   23268.56153220  .00002165  00000+0  24126-3 0  9990
2 39358  74.9723  75.4829 0018059 120.7415 239.5552 14.87480197538039
CZ-2C R/B               
1 39364U 13059B   23268.11984428  .00039314  00000+0  73117-3 0  9992
2 39364  97.0936 312.9869 0030984  92.0107 268.4693 15.48240302551628
SL-4 R/B                
1 39679U 14021B   23268.48050660  .00008034  00000+0  34024-3 0  9992
2 39679  51.6113 302.1452 0149546 141.3750 219.8034 15.14504191519430
ALOS-2                  
1 39766U 14029A   23268.51598335  .00003010  00000+0  40976-3 0  9999
2 39766  97.9224   3.9714 0001497 100.1138 260.0243 14.79472083504365
SL-27 R/B               
1 40354U 14084B   23268.55782011  .00027655  00000+0  38992-3 0  9991
2 40354  74.7317  60.1471 0025211   4.8695 355.2766 15.56092416492603
YAOGAN-29               
1 41038U 15069A   23268.61142976  .00000964  00000+0  13033-3 0  9995
2 41038  98.0650 276.4327 0002395  52.6700 307.4730 14.81347549423140
ASTRO-H (HITOMI)        
1 41337U 16012A   23268.49885492  .00004378  00000+0  32253-3 0  9997
2 41337  31.0049 343.3727 0011215  14.6315 345.4644 15.01657505417025
HXMT (HUIYAN)           
1 42758U 17034A   23268.54172541  .00009995  00000+0  56515-3 0  9997
2 42758  43.0158 305.3374 0005504 285.5704  74.4534 15.13174610346558
CZ-2C R/B               
1 43521U 18054D   23268.34846411  .00024003  00000+0  10048-2 0  9998
2 43521  35.1530 348.3463 0067648 257.0060 102.3097 15.20548132290280
SAOCOM 1A               
1 43641U 18076A   23268.55798072  .00000990  00000+0  13088-3 0  9994
2 43641  97.8900  93.6046 0001406  88.2894 271.8480 14.82146075268623
H-2A R/B                
1 43682U 18084L   23268.08161662  .00007859  00000+0  47786-3 0  9998
2 43682  98.8874 307.9947 0049828 172.5546 187.6430 15.09761082269284
SAOCOM 1B               
1 46265U 20059A   23268.52168289  .00000985  00000+0  13017-3 0  9997
2 46265  97.8894  92.6525 0001439  90.7336 269.4042 14.82170878166000
CSS (TIANHE)            
1 48274U 21035A   23268.72272072 -.00023223  00000+0 -24522-3 0  9997
2 48274  41.4743 264.1672 0007963 114.9742  53.3672 15.62975770137546
COSMOS 2550             
1 48865U 21056A   23268.50010386  .00008856  00000+0  27461-3 0  9998
2 48865  67.1415 232.0661 0008352 269.4741  90.5457 15.33838333126029
2022-019U               
1 51842U 22019U   23268.51846000  .00040580  00000+0  10009-2 0  9997
2 51842  97.5251 357.6308 0048458 344.5651  15.4113 15.39192952 87871
CZ-2C R/B               
1 52794U 22058K   23268.51548222  .00013306  00000+0  61665-3 0  9993
2 52794  50.1691  98.5180 0092338 144.5646 216.1490 15.16598790 72718
CZ-2C R/B               
1 53131U 22082D   23268.52413685  .00055286  00000+0  78669-3 0  9996
2 53131  97.3442 285.8744 0028861 224.4098 135.4842 15.55690649 67332
